H-2A R/B                
1 28932U 06002B   26182.95040585  .00009236  00000+0  44005-3 0  9992
2 28932  98.2580 340.1174 0050015 211.1799 148.6463 15.18265468111763
RESURS-DK 1             
1 29228U 06021A   26182.51171680  .00002294  00000+0  13467-3 0  9990
2 29228  69.9341 302.4724 0006685 284.9688  75.0738 15.13275435104741
CZ-4B R/B               
1 29507U 06046C   26182.69051495  .00004511  00000+0  22324-3 0  9993
2 29507  97.5437 227.2528 0031365 229.8595 129.9890 15.17888927 77330
CZ-2C R/B               
1 31114U 07010B   26182.92453411  .00000097  00000+0  63867-4 0  9995
2 31114  98.4112 290.5556 0058185 323.0234  36.6940 14.20279411995937
COSMO-SKYMED 1          
1 31598U 07023A   26182.97249641  .00002119  00000+0  18852-3 0  9998
2 31598  97.8854  14.9531 0001409  83.7111 276.4271 14.97174842 32008
COSMOS 2428             
1 31792U 07029A   26182.51527009  .00000051  00000+0  53211-4 0  9999
2 31792  70.9377 324.3928 0007126 107.6431 252.5469 14.12928616980174
SL-16 R/B               
1 31793U 07029B   26182.46326417 -.00000256  00000+0 -10797-3 0  9994
2 31793  70.9767 293.2187 0002431 261.7664 168.4174 14.14853200981462
KORONAS-FOTON           
1 33504U 09003A   26182.96659474  .00013470  00000+0  27420-3 0  9998
2 33504  82.4294 156.8383 0012613 102.2970 257.9692 15.46032326963385
CZ-2C R/B               
1 37731U 11030B   26182.90097470  .00001331  00000+0  17289-3 0  9998
2 37731  97.8661 138.0222 0051778 340.2669  86.2540 14.81507767807002
H-2A R/B                
1 38341U 12025E   26182.94104126  .00003200  00000+0  28801-3 0  9991
2 38341  98.4829 159.3034 0042471 299.6265  60.0727 14.95787786765296
SHIJIAN-16 (SJ-16)      
1 39358U 13057A   26182.98528995  .00001662  00000+0  16381-3 0  9994
2 39358  74.9735 328.6537 0016393 196.3270 163.7393 14.92635667688552
SL-4 R/B                
1 39679U 14021B   26182.32076847  .00011929  00000+0  24423-3 0  9997
2 39679  51.6048 141.5163 0090529 157.5354 202.9635 15.42229703673790
ALOS-2                  
1 39766U 14029A   26181.86863941  .00000732  00000+0  10488-3 0  9995
2 39766  97.9232 278.8362 0001598  87.5110 272.6284 14.79474729653601
YAOGAN-29               
1 41038U 15069A   26182.95326689 -.00000168  00000+0 -14010-4 0  9990
2 41038  98.0018 211.6086 0001751  30.4809 329.6506 14.83094565572815
ASTRO-H (HITOMI)        
1 41337U 16012A   26182.83600169  .00003117  00000+0  17846-3 0  9990
2 41337  31.0005 339.5782 0009623  39.9619 320.1727 15.10579392569502
HXMT (HUIYAN)           
1 42758U 17034A   26182.93405741  .00004963  00000+0  24385-3 0  9999
2 42758  43.0145 100.9201 0032686 240.0378 119.7224 15.18585715499900
SAOCOM 1A               
1 43641U 18076A   26182.98836802  .00000059  00000+0  14012-4 0  9998
2 43641  97.8877   9.5215 0001534  77.7221 282.4163 14.82157991418294
H-2A R/B                
1 43682U 18084L   26182.95545394  .00025336  00000+0  52084-3 0  9997
2 43682  98.8552  65.0770 0021766 349.0386  11.0382 15.45732107423405
SAOCOM 1B               
1 46265U 20059A   26182.95206125  .00001108  00000+0  14572-3 0  9999
2 46265  97.8881   8.5812 0001626  81.4072 278.7325 14.82152378315674
CSS (TIANHE)            
1 48274U 21035A   26182.81884475  .00022000  00000+0  25314-3 0  9991
2 48274  41.4674 232.9178 0008872 195.4262 164.6308 15.61427811295458
COSMOS 2550             
1 48865U 21056A   26182.95657824  .00005927  00000+0  18561-3 0  9996
2 48865  67.1432  55.2296 0008364 268.7655  91.2541 15.33870229280984
CZ-2C R/B               
1 52794U 22058K   26182.88845880  .00044809  00000+0  47649-3 0  9999
2 52794  50.1853  86.9653 0031423 327.8846  32.0213 15.62903958227942
CZ-2C R/B               
1 54039U 22132E   26182.91710206  .00079036  00000+0  56626-3 0  9998
2 54039  97.2888 190.6165 0012585  36.1571 324.0542 15.73357083208267
GSLV R/B                
1 54149U 22138AN  26182.88778565  .00002729  00000+0  23143-3 0  9997
2 54149  87.3817 128.0481 0024185  95.5259 264.8732 14.97327310201011
XRISM                   
1 57800U 23137A   26182.90693761  .00005265  00000+0  28864-3 0  9994
2 57800  31.0018 264.2474 0007728 112.3288 247.8171 15.12591929155097
ACS3                    
1 59588U 24077B   26182.26948977  .00030867  00000+0  21972-1 0  9991
2 59588  97.1701  97.9267 0105940  51.4379 309.6223 13.94627727110005
CZ-8A R/B               
1 66004U 25231K   26182.79550344 -.00000024  00000+0  49822-4 0  9990
2 66004  50.0054 337.1662 0116483 275.4335  83.3303 14.30158839 37037
SZ-21 MODULE            
1 66515U 25246C   26182.40131714  .00056541  00000+0  32796-3 0  9992
2 66515  41.4702 218.7196 0005083 112.0271 248.1115 15.77622240 35980
