OBJECT_NAME,OBJECT_ID,EPOCH,MEAN_MOTION,ECCENTRICITY,INCLINATION,RA_OF_ASC_NODE,ARG_OF_PERICENTER,MEAN_ANOMALY,EPHEMERIS_TYPE,CLASSIFICATION_TYPE,NORAD_CAT_ID,ELEMENT_SET_NO,REV_AT_EPOCH,BSTAR,MEAN_MOTION_DOT,MEAN_MOTION_DDOT
H-2A R/B,2006-002B,2026-07-01T22:48:35.065440,15.18265468,.00500155,98.2580,340.1174,211.1799,148.6463,0,U,28932,999,11176,.44004894E-3,.9236E-4,0
RESURS-DK 1,2006-021A,2026-07-01T12:16:52.331520,15.13275435,.00066857,69.9341,302.4724,284.9688,75.0738,0,U,29228,999,10474,.13466925E-3,.2294E-4,0
CZ-4B R/B,2006-046C,2026-07-01T16:34:20.491680,15.17888927,.00313658,97.5437,227.2528,229.8595,129.9890,0,U,29507,999,7733,.2232441E-3,.4511E-4,0
CZ-2C R/B,2007-010B,2026-07-01T22:11:19.747104,14.20279411,.00581857,98.4112,290.5556,323.0234,36.6940,0,U,31114,999,99593,.63866537E-4,.97E-6,0
COSMO-SKYMED 1,2007-023A,2026-07-01T23:20:23.689824,14.97174842,.00014091,97.8854,14.9531,83.7111,276.4271,0,U,31598,999,3200,.18851957E-3,.2119E-4,0
COSMOS 2428,2007-029A,2026-07-01T12:21:59.335776,14.12928616,.00071268,70.9377,324.3928,107.6431,252.5469,0,U,31792,999,98017,.53211349E-4,.51E-6,0
SL-16 R/B,2007-029B,2026-07-01T11:07:06.024288,14.14853200,.00024318,70.9767,293.2187,261.7664,168.4174,0,U,31793,999,98146,-.10797126E-3,-.256E-5,0
KORONAS-FOTON,2009-003A,2026-07-01T23:11:53.785536,15.46032326,.00126137,82.4294,156.8383,102.2970,257.9692,0,U,33504,999,96338,.27420414E-3,.1347E-3,0
CZ-2C R/B,2011-030B,2026-07-01T21:37:24.214080,14.81507767,.00517785,97.8661,138.0222,340.2669,86.2540,0,U,37731,999,80700,.17289216E-3,.1331E-4,0
H-2A R/B,2012-025E,2026-07-01T22:35:05.964864,14.95787786,.00424714,98.4829,159.3034,299.6265,60.0727,0,U,38341,999,76529,.28800607E-3,.32E-4,0
SHIJIAN-16 (SJ-16),2013-057A,2026-07-01T23:38:49.051680,14.92635667,.00163933,74.9735,328.6537,196.3270,163.7393,0,U,39358,999,68855,.1638063E-3,.1662E-4,0
SL-4 R/B,2014-021B,2026-07-01T07:41:54.395808,15.42229703,.00905297,51.6048,141.5163,157.5354,202.9635,0,U,39679,999,67379,.24423268E-3,.11929E-3,0
ALOS-2,2014-029A,2026-06-30T20:50:50.445024,14.79474729,.0001598,97.9232,278.8362,87.5110,272.6284,0,U,39766,999,65360,.10488E-3,.732E-5,0
YAOGAN-29,2015-069A,2026-07-01T22:52:42.259296,14.83094565,.00017517,98.0018,211.6086,30.4809,329.6506,0,U,41038,999,57281,-.14009594E-4,-.168E-5,0
ASTRO-H (HITOMI),2016-012A,2026-07-01T20:03:50.546016,15.10579392,.00096234,31.0005,339.5782,39.9619,320.1727,0,U,41337,999,56950,.17846492E-3,.3117E-4,0
HXMT (HUIYAN),2017-034A,2026-07-01T22:25:02.560224,15.18585715,.00326864,43.0145,100.9201,240.0378,119.7224,0,U,42758,999,49990,.24385202E-3,.4963E-4,0
SAOCOM 1A,2018-076A,2026-07-01T23:43:14.996928,14.82157991,.00015341,97.8877,9.5215,77.7221,282.4163,0,U,43641,999,41829,.14011866E-4,.59E-6,0
H-2A R/B,2018-084L,2026-07-01T22:55:51.220416,15.45732107,.0021766,98.8552,65.0770,349.0386,11.0382,0,U,43682,999,42340,.52084475E-3,.25336E-3,0
SAOCOM 1B,2020-059A,2026-07-01T22:50:58.092000,14.82152378,.00016262,97.8881,8.5812,81.4072,278.7325,0,U,46265,999,31567,.14571697E-3,.1108E-4,0
CSS (TIANHE),2021-035A,2026-07-01T19:39:08.186400,15.61427811,.00088722,41.4674,232.9178,195.4262,164.6308,0,U,48274,999,29545,.25313625E-3,.22E-3,0
COSMOS 2550,2021-056A,2026-07-01T22:57:28.359936,15.33870229,.00083646,67.1432,55.2296,268.7655,91.2541,0,U,48865,999,28098,.18561255E-3,.5927E-4,0
CZ-2C R/B,2022-058K,2026-07-01T21:19:22.840320,15.62903958,.00314232,50.1853,86.9653,327.8846,32.0213,0,U,52794,999,22794,.47648926E-3,.44809E-3,0
CZ-2C R/B,2022-132E,2026-07-01T22:00:37.617984,15.73357083,.00125854,97.2888,190.6165,36.1571,324.0542,0,U,54039,999,20826,.56626252E-3,.79036E-3,0
GSLV R/B,2022-138AN,2026-07-01T21:18:24.680160,14.97327310,.00241857,87.3817,128.0481,95.5259,264.8732,0,U,54149,999,20101,.23143438E-3,.2729E-4,0
XRISM,2023-137A,2026-07-01T21:45:59.409504,15.12591929,.00077288,31.0018,264.2474,112.3288,247.8171,0,U,57800,999,15509,.28864316E-3,.5265E-4,0
ACS3,2024-077B,2026-07-01T06:28:03.916128,13.94627727,.01059402,97.1701,97.9267,51.4379,309.6223,0,U,59588,999,11000,.21971682E-1,.30867E-3,0
CZ-8A R/B,2025-231K,2026-07-01T19:05:31.497216,14.30158839,.01164835,50.0054,337.1662,275.4335,83.3303,0,U,66004,999,3703,.49821779E-4,-.24E-6,0
SZ-21 MODULE,2025-246C,2026-07-01T09:37:53.800896,15.77622240,.00050833,41.4702,218.7196,112.0271,248.1115,0,U,66515,999,3598,.32796125E-3,.56541E-3,0
